OBJECT_NAME,OBJECT_ID,EPOCH,MEAN_MOTION,ECCENTRICITY,INCLINATION,RA_OF_ASC_NODE,ARG_OF_PERICENTER,MEAN_ANOMALY,EPHEMERIS_TYPE,CLASSIFICATION_TYPE,NORAD_CAT_ID,ELEMENT_SET_NO,REV_AT_EPOCH,BSTAR,MEAN_MOTION_DOT,MEAN_MOTION_DDOT
STARLINK-4472,2022-105P,2026-07-04T09:07:15.220128,15.05657213,.00023163,97.2846,63.4656,87.3758,272.7735,0,U,53661,999,21078,.68232868E-4,.929E-5,0
STARLINK-4357,2022-105Q,2026-07-05T06:00:04.999968,15.57144289,.00016824,97.6018,71.4860,89.1692,285.1925,0,U,53662,999,584,-.74872083E-2,-.509603E-2,0
STARLINK-4457,2022-105R,2026-07-05T03:01:50.797632,15.05657556,.00024053,97.2841,65.3529,89.5000,270.6504,0,U,53663,999,21097,.17279578E-4,.193E-5,0
STARLINK-4471,2022-105S,2026-07-04T15:00:06.009120,15.05660019,.00023961,97.2838,64.7932,78.3964,281.7533,0,U,53664,999,21089,.72211753E-4,.986E-5,0
STARLINK-4334,2022-105T,2026-07-05T06:00:04.999968,15.61388001,.00017485,97.6027,71.6476,107.9948,250.4709,0,U,53665,999,584,.1137499E-2,.97773E-3,0
STARLINK-4406,2022-105V,2026-07-05T05:36:30.554208,15.35614292,.00017348,97.5997,70.4027,118.7636,241.3781,0,U,53667,999,21120,.9218157E-3,.31929E-3,0
STARLINK-4458,2022-105W,2026-07-05T06:00:04.999968,15.61939706,.00018842,97.6027,72.0022,81.7763,125.3878,0,U,53668,999,585,-.56429244E-2,-.463498E-2,0
STARLINK-4464,2022-105X,2026-07-05T06:00:04.999968,15.57120931,.00016169,97.6013,70.2036,85.4756,178.5867,0,U,53669,999,583,.23721427E-2,.175378E-2,0
STARLINK-4459,2022-105Y,2026-07-05T02:45:53.525376,15.05658559,.00024973,97.2847,65.3308,73.4449,286.7053,0,U,53670,999,21097,.43883645E-4,.577E-5,0
STARLINK-4440,2022-105Z,2026-07-05T02:27:59.240736,15.05657397,.00021594,97.2848,64.1337,85.3247,274.8227,0,U,53671,999,21089,.16439992E-4,.181E-5,0
STARLINK-4428,2022-105AA,2026-07-05T03:19:49.435104,15.05661003,.00020277,97.2858,64.2256,87.3915,272.7545,0,U,53672,999,21090,.1052618E-3,.1463E-4,0
STARLINK-4456,2022-105AB,2026-07-05T06:00:04.999968,15.50145086,.00014373,97.6028,69.2408,102.3382,3.2475,0,U,53673,999,584,.13403878E-1,.824797E-2,0
STARLINK-4620,2022-105AC,2026-07-04T22:40:42.169728,15.05659456,.00023038,97.2858,64.0252,87.6624,272.4867,0,U,53674,999,21087,.832503E-4,.1145E-4,0
STARLINK-4617,2022-105AD,2026-07-04T19:55:11.134272,15.05660583,.00023745,97.2857,65.0905,78.3878,281.7616,0,U,53675,999,21093,.71908701E-4,.982E-5,0
STARLINK-4621,2022-105AE,2026-07-05T02:59:53.762784,15.05650707,.00020411,97.2847,64.2302,88.1318,272.0144,0,U,53676,999,21090,-.62404854E-4,-.957E-5,0
STARLINK-4579,2022-105AF,2026-07-04T15:43:57.976896,15.05657372,.00022749,97.2855,64.8752,87.0777,273.0711,0,U,53677,999,21090,.49395196E-4,.657E-5,0
STARLINK-4632,2022-105AH,2026-07-04T14:56:07.497600,15.05660835,.00021119,97.2858,64.9124,85.8478,274.2991,0,U,53679,999,21090,.9633294E-4,.1334E-4,0
STARLINK-4630,2022-105AJ,2026-07-05T02:49:52.722048,15.05657076,.00023599,97.2851,65.2933,83.7687,276.3810,0,U,53680,999,21097,-.874682E-6,-.69E-6,0
STARLINK-4424,2022-105AK,2026-07-05T06:00:04.999968,15.74106502,.00016685,97.6012,71.4237,109.1290,135.0174,0,U,53681,999,556,.27847717E-2,.416398E-2,0
STARLINK-4438,2022-105AL,2026-07-05T03:17:47.356224,15.05654479,.00022383,97.2855,65.2612,78.3149,281.8329,0,U,53682,999,21097,.3057975E-4,.385E-5,0
STARLINK-4625,2022-105AM,2026-07-05T02:47:55.933440,15.05658247,.00023941,97.2845,64.2331,88.1710,271.9791,0,U,53683,999,21090,.23010888E-4,.276E-5,0
STARLINK-4624,2022-105AN,2026-07-05T02:51:55.168992,15.05656344,.00023949,97.2844,64.1848,79.0684,281.0813,0,U,53684,999,21087,.839442E-6,-.44E-6,0
STARLINK-4626,2022-105AP,2026-07-04T15:02:08.786976,15.05668408,.00019085,97.2859,63.6660,67.0144,293.1285,0,U,53685,999,21082,.1267834E-3,.1774E-4,0
STARLINK-4467,2022-105AQ,2026-07-04T14:50:10.704480,15.05669341,.00021846,97.2860,63.6692,82.2342,277.9133,0,U,53686,999,21082,.50111418E-3,.7185E-4,0
STARLINK-4569,2022-105AR,2026-07-05T03:13:47.858016,15.05657129,.00023598,97.2848,65.2627,79.8037,280.3456,0,U,53687,999,21097,.5969721E-4,.805E-5,0
STARLINK-4571,2022-105AS,2026-07-05T03:11:50.995104,15.05661229,.00022701,97.2854,64.1860,83.0796,277.0690,0,U,53688,999,21090,.70767611E-4,.965E-5,0
STARLINK-4570,2022-105AU,2026-07-05T02:55:54.350112,15.05656742,.00022172,97.2847,64.1965,88.2968,271.8514,0,U,53690,999,21090,.18473671E-4,.21E-5,0
STARLINK-4560,2022-105AV,2026-07-05T05:49:19.241184,15.05652512,.00024209,97.2853,65.4054,83.8803,276.2701,0,U,53691,999,21099,-.18077165E-4,-.317E-5,0
STARLINK-4572,2022-105AW,2026-07-05T02:36:00.536256,15.27932512,.0002606,97.6050,74.8899,111.0427,249.1090,0,U,53692,999,21144,.20502214E-2,.56179E-3,0
STARLINK-4566,2022-105AX,2026-07-05T03:09:49.296384,15.05650394,.00020714,97.2851,65.3942,87.2817,272.8648,0,U,53693,999,21098,.72223998E-4,.986E-5,0
