STARLINK-4472           
1 53661U 22105P   26185.38003727  .00000929  00000+0  68233-4 0  9998
2 53661  97.2846  63.4656 0002316  87.3758 272.7735 15.05657213210785
STARLINK-4357           
1 53662U 22105Q   26186.25005787 -.00509603  00000+0 -74872-2 0  9993
2 53662  97.6018  71.4860 0001682  89.1692 285.1925 15.57144289  5848
STARLINK-4457           
1 53663U 22105R   26186.12628238  .00000193  00000+0  17280-4 0  9992
2 53663  97.2841  65.3529 0002405  89.5000 270.6504 15.05657556210977
STARLINK-4471           
1 53664U 22105S   26185.62506955  .00000986  00000+0  72212-4 0  9994
2 53664  97.2838  64.7932 0002396  78.3964 281.7533 15.05660019210893
STARLINK-4334           
1 53665U 22105T   26186.25005787  .00097773  00000+0  11375-2 0  9993
2 53665  97.6027  71.6476 0001748 107.9948 250.4709 15.61388001  5844
STARLINK-4406           
1 53667U 22105V   26186.23368697  .00031929  00000+0  92182-3 0  9992
2 53667  97.5997  70.4027 0001734 118.7636 241.3781 15.35614292211202
STARLINK-4458           
1 53668U 22105W   26186.25005787 -.00463498  00000+0 -56429-2 0  9998
2 53668  97.6027  72.0022 0001884  81.7763 125.3878 15.61939706  5856
STARLINK-4464           
1 53669U 22105X   26186.25005787  .00175378  00000+0  23721-2 0  9993
2 53669  97.6013  70.2036 0001616  85.4756 178.5867 15.57120931  5836
STARLINK-4459           
1 53670U 22105Y   26186.11520284  .00000577  00000+0  43884-4 0  9996
2 53670  97.2847  65.3308 0002497  73.4449 286.7053 15.05658559210977
STARLINK-4440           
1 53671U 22105Z   26186.10276899  .00000181  00000+0  16440-4 0  9995
2 53671  97.2848  64.1337 0002159  85.3247 274.8227 15.05657397210892
STARLINK-4428           
1 53672U 22105AA  26186.13876661  .00001463  00000+0  10526-3 0  9994
2 53672  97.2858  64.2256 0002027  87.3915 272.7545 15.05661003210904
STARLINK-4456           
1 53673U 22105AB  26186.25005787  .00824797  00000+0  13404-1 0  9990
2 53673  97.6028  69.2408 0001437 102.3382   3.2475 15.50145086  5844
STARLINK-4620           
1 53674U 22105AC  26185.94493252  .00001145  00000+0  83250-4 0  9997
2 53674  97.2858  64.0252 0002303  87.6624 272.4867 15.05659456210876
STARLINK-4617           
1 53675U 22105AD  26185.82998998  .00000982  00000+0  71909-4 0  9998
2 53675  97.2857  65.0905 0002374  78.3878 281.7616 15.05660583210933
STARLINK-4621           
1 53676U 22105AE  26186.12492781 -.00000957  00000+0 -62405-4 0  9997
2 53676  97.2847  64.2302 0002041  88.1318 272.0144 15.05650707210907
STARLINK-4579           
1 53677U 22105AF  26185.65553214  .00000657  00000+0  49395-4 0  9992
2 53677  97.2855  64.8752 0002274  87.0777 273.0711 15.05657372210903
STARLINK-4632           
1 53679U 22105AH  26185.62230900  .00001334  00000+0  96333-4 0  9992
2 53679  97.2858  64.9124 0002111  85.8478 274.2991 15.05660835210907
STARLINK-4630           
1 53680U 22105AJ  26186.11797132 -.00000069  00000+0 -87468-6 0  9991
2 53680  97.2851  65.2933 0002359  83.7687 276.3810 15.05657076210970
STARLINK-4424           
1 53681U 22105AK  26186.25005787  .00416398  00000+0  27848-2 0  9991
2 53681  97.6012  71.4237 0001668 109.1290 135.0174 15.74106502  5565
STARLINK-4438           
1 53682U 22105AL  26186.13735366  .00000385  00000+0  30580-4 0  9996
2 53682  97.2855  65.2612 0002238  78.3149 281.8329 15.05654479210979
STARLINK-4625           
1 53683U 22105AM  26186.11661960  .00000276  00000+0  23011-4 0  9993
2 53683  97.2845  64.2331 0002394  88.1710 271.9791 15.05658247210905
STARLINK-4624           
1 53684U 22105AN  26186.11938853 -.00000044  00000+0  83944-6 0  9999
2 53684  97.2844  64.1848 0002394  79.0684 281.0813 15.05656344210875
STARLINK-4626           
1 53685U 22105AP  26185.62649059  .00001774  00000+0  12678-3 0  9995
2 53685  97.2859  63.6660 0001908  67.0144 293.1285 15.05668408210822
STARLINK-4467           
1 53686U 22105AQ  26185.61817945  .00007185  00000+0  50111-3 0  9992
2 53686  97.2860  63.6692 0002184  82.2342 277.9133 15.05669341210825
STARLINK-4569           
1 53687U 22105AR  26186.13458169  .00000805  00000+0  59697-4 0  9991
2 53687  97.2848  65.2627 0002359  79.8037 280.3456 15.05657129210978
STARLINK-4571           
1 53688U 22105AS  26186.13322911  .00000965  00000+0  70768-4 0  9996
2 53688  97.2854  64.1860 0002270  83.0796 277.0690 15.05661229210906
STARLINK-4570           
1 53690U 22105AU  26186.12215683  .00000210  00000+0  18474-4 0  9994
2 53690  97.2847  64.1965 0002217  88.2968 271.8514 15.05656742210907
STARLINK-4560           
1 53691U 22105AV  26186.24258381 -.00000317  00000+0 -18077-4 0  9999
2 53691  97.2853  65.4054 0002420  83.8803 276.2701 15.05652512210990
STARLINK-4572           
1 53692U 22105AW  26186.10833954  .00056179  00000+0  20502-2 0  9999
2 53692  97.6050  74.8899 0002606 111.0427 249.1090 15.27932512211443
STARLINK-4566           
1 53693U 22105AX  26186.13182056  .00000986  00000+0  72224-4 0  9998
2 53693  97.2851  65.3942 0002071  87.2817 272.8648 15.05650394210987
